ONEWEB-0572             
1 55151U 23004M   26203.90558940  .00000108  00000+0  24624-3 0  9998
2 55151  87.9157 358.7608 0001938  91.0262 269.1091 13.17648927172189
ONEWEB-0573             
1 55152U 23004N   26204.30806352  .00000044  00000+0  79091-4 0  9995
2 55152  87.9193 328.2861 0002700  90.0949 270.0493 13.18684303174450
ONEWEB-0588             
1 55153U 23004P   26204.30131826  .00000081  00000+0  17224-3 0  9993
2 55153  87.9196 328.2870 0001959  83.9545 276.1811 13.18687011174452
ONEWEB-0598             
1 55154U 23004Q   26204.01974311  .00000095  00000+0  23243-3 0  9999
2 55154  87.8889  13.9333 0002520  94.4078 265.7338 13.11416109170596
ONEWEB-0599             
1 55155U 23004R   26203.86677328  .00000080  00000+0  17203-3 0  9993
2 55155  87.9153 358.7667 0001965  99.9574 260.1779 13.17647824172186
ONEWEB-0614             
1 55156U 23004S   26204.16725241  .00000299  00000+0  80861-3 0  9998
2 55156  87.8883  13.9116 0001671  86.5537 273.5783 13.11416040170550
ONEWEB-0616             
1 55157U 23004T   26203.90895895  .00000035  00000+0  57071-4 0  9999
2 55157  87.9153 358.7627 0002098 120.3501 239.7838 13.17648234172400
ONEWEB-0617             
1 55158U 23004U   26204.00278134  .00000512  00000+0  14080-2 0  9994
2 55158  87.8897  13.9372 0001756  83.0717 277.0611 13.11418155170555
ONEWEB-0618             
1 55159U 23004V   26204.29582083  .00005790  00000+0  32142-3 0  9990
2 55159  86.9108 162.9734 0013635 147.7744 212.4332 15.13460761187729
ONEWEB-0619             
1 55160U 23004W   26203.33353044  .00000031  00000+0  45676-4 0  9999
2 55160  87.9166 358.8606 0001427  96.0871 264.0423 13.17648502172229
ONEWEB-0620             
1 55161U 23004X   26204.22659311  .00000559  00000+0  15409-2 0  9999
2 55161  87.8889  13.8994 0002058  88.7542 271.3822 13.11417969170556
ONEWEB-0621             
1 55162U 23004Y   26204.17742544 -.00000140  00000+0 -43213-3 0  9998
2 55162  87.8892  13.9014 0001607  86.8339 273.2973 13.11414875170525
ONEWEB-0622             
1 55163U 23004Z   26204.18250870 -.00000361  00000+0 -10554-2 0  9992
2 55163  87.8896  13.9036 0001911  69.4504 290.6829 13.11415012170519
ONEWEB-0623             
1 55164U 23004AA  26203.70815676  .00000070  00000+0  14681-3 0  9992
2 55164  87.9152 358.8120 0001355  71.8178 288.3101 13.17648638172266
ONEWEB-0624             
1 55165U 23004AB  26204.31794792  .00000097  00000+0  23254-3 0  9991
2 55165  87.8978 343.3963 0001721  94.7768 265.3557 13.12928068172816
ONEWEB-0625             
1 55166U 23004AC  26204.15364621  .00000030  00000+0  44242-4 0  9996
2 55166  87.9154 358.7202 0001773  99.3318 260.8014 13.17648020172314
ONEWEB-0626             
1 55167U 23004AD  26203.99165987  .00000064  00000+0  13276-3 0  9991
2 55167  87.9155 358.7518 0002155  95.8744 264.2633 13.17648643172298
ONEWEB-0627             
1 55168U 23004AE  26203.90390725  .00000146  00000+0  34375-3 0  9997
2 55168  87.9158 358.7697 0001458  81.9953 278.1344 13.17649431172281
ONEWEB-0628             
1 55169U 23004AF  26204.31271712  .00000326  00000+0  86976-3 0  9992
2 55169  87.8977 343.4721 0001256  88.1557 271.9715 13.12438772172770
ONEWEB-0629             
1 55170U 23004AG  26204.18317496  .00000083  00000+0  17962-3 0  9998
2 55170  87.9154 358.7100 0001503  97.5228 262.6074 13.17650141172321
ONEWEB-0631             
1 55171U 23004AH  26204.29457482  .00000044  00000+0  78916-4 0  9995
2 55171  87.9203 328.2574 0002206  87.9726 272.1659 13.18687157174438
ONEWEB-0709             
1 55172U 23004AJ  26204.21642485  .00000186  00000+0  48971-3 0  9991
2 55172  87.8890  13.9039 0002712  93.2689 266.8750 13.11418781170597
ONEWEB-0710             
1 55173U 23004AK  26202.98254745  .00000011  00000+0 -46927-5 0  9991
2 55173  87.9153 358.9437 0001804  88.3322 271.8016 13.17648859172168
ONEWEB-0711             
1 55174U 23004AL  26204.03499662 -.00000478  00000+0 -13832-2 0  9993
2 55174  87.8891  13.9283 0001575  68.5099 291.6197 13.11416292170537
ONEWEB-0713             
1 55175U 23004AM  26204.20624866 -.00000198  00000+0 -59446-3 0  9990
2 55175  87.8896  13.8963 0001650  80.4268 279.7046 13.11418621170541
ONEWEB-0715             
1 55176U 23004AN  26204.20116179 -.00000376  00000+0 -10962-2 0  9991
2 55176  87.8892  13.8979 0002457  85.8955 274.2454 13.11417886170582
ONEWEB-0716             
1 55177U 23004AP  26202.67205174  .00000037  00000+0  63114-4 0  9996
2 55177  87.9153 359.0084 0001832 100.9471 259.1867 13.17649269172124
ONEWEB-0717             
1 55178U 23004AQ  26203.87015237  .00000067  00000+0  14063-3 0  9990
2 55178  87.9164 358.7615 0001852  77.0935 283.0403 13.17647757172339
ONEWEB-0719             
1 55179U 23004AR  26203.88027258  .00000036  00000+0  59083-4 0  9996
2 55179  87.9164 358.7395 0001715  99.5146 260.6179 13.17647925172288
ONEWEB-0530             
1 55796U 23029A   26204.15015597 -.00000035  00000+0 -11807-3 0  9994
2 55796  87.9167 267.2992 0001677  88.5156 271.6169 13.20770383165898
